[{"OBJECT_NAME":"COSMOS 2251 DEB","OBJECT_ID":"1993-036BPR","EPOCH":"2023-09-14T17:32:08.375136","MEAN_MOTION":14.63690188,"ECCENTRICITY":0.0022387,"INCLINATION":73.9952,"RA_OF_ASC_NODE":57.1058,"ARG_OF_PERICENTER":116.0374,"MEAN_ANOMALY":244.3102,"EPHEMERIS_TYPE":0,"CLASSIFICATION_TYPE":"U","NORAD_CAT_ID":37966,"ELEMENT_SET_NO":999,"REV_AT_EPOCH":73191,"BSTAR":0.002343,"MEAN_MOTION_DOT":0.00012231,"MEAN_MOTION_DDOT":0},{"OBJECT_NAME":"COSMOS 2251 DEB","OBJECT_ID":"1993-036BPS","EPOCH":"2023-09-13T12:53:01.704192","MEAN_MOTION":14.27578049,"ECCENTRICITY":0.018101,"INCLINATION":74.0205,"RA_OF_ASC_NODE":202.6333,"ARG_OF_PERICENTER":176.9971,"MEAN_ANOMALY":183.2312,"EPHEMERIS_TYPE":0,"CLASSIFICATION_TYPE":"U","NORAD_CAT_ID":37967,"ELEMENT_SET_NO":999,"REV_AT_EPOCH":52964,"BSTAR":0.0013549,"MEAN_MOTION_DOT":3.945e-5,"MEAN_MOTION_DDOT":0},{"OBJECT_NAME":"COSMOS 2251 DEB","OBJECT_ID":"1993-036BPT","EPOCH":"2023-09-14T07:08:41.775936","MEAN_MOTION":14.79719339,"ECCENTRICITY":0.0116826,"INCLINATION":74.0067,"RA_OF_ASC_NODE":114.9087,"ARG_OF_PERICENTER":82.1494,"MEAN_ANOMALY":279.2924,"EPHEMERIS_TYPE":0,"CLASSIFICATION_TYPE":"U","NORAD_CAT_ID":37968,"ELEMENT_SET_NO":999,"REV_AT_EPOCH":48004,"BSTAR":0.0010413,"MEAN_MOTION_DOT":8.765e-5,"MEAN_MOTION_DDOT":0},{"OBJECT_NAME":"COSMOS 2251 DEB","OBJECT_ID":"1993-036BPW","EPOCH":"2023-09-12T01:11:24.624384","MEAN_MOTION":14.33118771,"ECCENTRICITY":0.0086916,"INCLINATION":74.0007,"RA_OF_ASC_NODE":127.5286,"ARG_OF_PERICENTER":96.1424,"MEAN_ANOMALY":264.9638,"EPHEMERIS_TYPE":0,"CLASSIFICATION_TYPE":"U","NORAD_CAT_ID":37971,"ELEMENT_SET_NO":999,"REV_AT_EPOCH":48830,"BSTAR":0.0016663,"MEAN_MOTION_DOT":4.745e-5,"MEAN_MOTION_DDOT":0},{"OBJECT_NAME":"COSMOS 2251 DEB","OBJECT_ID":"1993-036BPY","EPOCH":"2023-09-13T00:28:34.711680","MEAN_MOTION":14.36184022,"ECCENTRICITY":0.0041286,"INCLINATION":74.0376,"RA_OF_ASC_NODE":20.0772,"ARG_OF_PERICENTER":298.8393,"MEAN_ANOMALY":60.8618,"EPHEMERIS_TYPE":0,"CLASSIFICATION_TYPE":"U","NORAD_CAT_ID":37973,"ELEMENT_SET_NO":999,"REV_AT_EPOCH":53168,"BSTAR":0.00090922,"MEAN_MOTION_DOT":2.652e-5,"MEAN_MOTION_DDOT":0},{"OBJECT_NAME":"COSMOS 2251 DEB","OBJECT_ID":"1993-036BQA","EPOCH":"2023-09-13T19:18:30.640320","MEAN_MOTION":14.4131956,"ECCENTRICITY":0.0160141,"INCLINATION":74.0155,"RA_OF_ASC_NODE":86.0231,"ARG_OF_PERICENTER":277.8006,"MEAN_ANOMALY":80.4995,"EPHEMERIS_TYPE":0,"CLASSIFICATION_TYPE":"U","NORAD_CAT_ID":37975,"ELEMENT_SET_NO":999,"REV_AT_EPOCH":74287,"BSTAR":0.0022045,"MEAN_MOTION_DOT":8.29e-5,"MEAN_MOTION_DDOT":0},{"OBJECT_NAME":"COSMOS 2251 DEB","OBJECT_ID":"1993-036BQC","EPOCH":"2023-09-14T06:52:17.286816","MEAN_MOTION":14.57746499,"ECCENTRICITY":0.0029892,"INCLINATION":73.9769,"RA_OF_ASC_NODE":242.3497,"ARG_OF_PERICENTER":208.6472,"MEAN_ANOMALY":151.3052,"EPHEMERIS_TYPE":0,"CLASSIFICATION_TYPE":"U","NORAD_CAT_ID":37977,"ELEMENT_SET_NO":999,"REV_AT_EPOCH":53666,"BSTAR":0.0036314,"MEAN_MOTION_DOT":0.00016707,"MEAN_MOTION_DDOT":0},{"OBJECT_NAME":"COSMOS 2251 DEB","OBJECT_ID":"1993-036BQD","EPOCH":"2023-09-09T21:04:48.162144","MEAN_MOTION":14.74565931,"ECCENTRICITY":0.0072807,"INCLINATION":74.0701,"RA_OF_ASC_NODE":326.0337,"ARG_OF_PERICENTER":205.8372,"MEAN_ANOMALY":153.916,"EPHEMERIS_TYPE":0,"CLASSIFICATION_TYPE":"U","NORAD_CAT_ID":37978,"ELEMENT_SET_NO":999,"REV_AT_EPOCH":54496,"BSTAR":0.0018871,"MEAN_MOTION_DOT":0.00013108,"MEAN_MOTION_DDOT":0},{"OBJECT_NAME":"COSMOS 2251 DEB","OBJECT_ID":"1993-036BQL","EPOCH":"2023-09-13T21:15:33.168384","MEAN_MOTION":14.35006369,"ECCENTRICITY":0.0022638,"INCLINATION":74.0273,"RA_OF_ASC_NODE":331.8305,"ARG_OF_PERICENTER":293.7821,"MEAN_ANOMALY":66.0957,"EPHEMERIS_TYPE":0,"CLASSIFICATION_TYPE":"U","NORAD_CAT_ID":37985,"ELEMENT_SET_NO":999,"REV_AT_EPOCH":53140,"BSTAR":7.3443e-5,"MEAN_MOTION_DOT":1.83e-6,"MEAN_MOTION_DDOT":0},{"OBJECT_NAME":"COSMOS 2251 DEB","OBJECT_ID":"1993-036BQP","EPOCH":"2023-09-14T16:27:25.207488","MEAN_MOTION":14.55240751,"ECCENTRICITY":0.0081147,"INCLINATION":74.0684,"RA_OF_ASC_NODE":151.0791,"ARG_OF_PERICENTER":45.3815,"MEAN_ANOMALY":315.3929,"EPHEMERIS_TYPE":0,"CLASSIFICATION_TYPE":"U","NORAD_CAT_ID":37988,"ELEMENT_SET_NO":999,"REV_AT_EPOCH":11412,"BSTAR":0.0013773,"MEAN_MOTION_DOT":6.208e-5,"MEAN_MOTION_DDOT":0},{"OBJECT_NAME":"COSMOS 2251 DEB","OBJECT_ID":"1993-036BQU","EPOCH":"2023-09-12T18:13:54.431328","MEAN_MOTION":14.45989196,"ECCENTRICITY":0.0030151,"INCLINATION":74.0276,"RA_OF_ASC_NODE":278.4758,"ARG_OF_PERICENTER":212.5268,"MEAN_ANOMALY":147.4033,"EPHEMERIS_TYPE":0,"CLASSIFICATION_TYPE":"U","NORAD_CAT_ID":37993,"ELEMENT_SET_NO":999,"REV_AT_EPOCH":68193,"BSTAR":0.0013185,"MEAN_MOTION_DOT":4.698e-5,"MEAN_MOTION_DDOT":0},{"OBJECT_NAME":"COSMOS 2251 DEB","OBJECT_ID":"1993-036BQV","EPOCH":"2023-09-15T09:37:41.428416","MEAN_MOTION":14.36495505,"ECCENTRICITY":0.002526,"INCLINATION":74.0399,"RA_OF_ASC_NODE":344.9361,"ARG_OF_PERICENTER":269.3142,"MEAN_ANOMALY":90.5117,"EPHEMERIS_TYPE":0,"CLASSIFICATION_TYPE":"U","NORAD_CAT_ID":37994,"ELEMENT_SET_NO":999,"REV_AT_EPOCH":65286,"BSTAR":0.00047466,"MEAN_MOTION_DOT":1.372e-5,"MEAN_MOTION_DDOT":0},{"OBJECT_NAME":"COSMOS 2251 DEB","OBJECT_ID":"1993-036BQX","EPOCH":"2023-09-15T18:37:06.561696","MEAN_MOTION":13.88654734,"ECCENTRICITY":0.0284886,"INCLINATION":74.0724,"RA_OF_ASC_NODE":177.8989,"ARG_OF_PERICENTER":124.0412,"MEAN_ANOMALY":238.8121,"EPHEMERIS_TYPE":0,"CLASSIFICATION_TYPE":"U","NORAD_CAT_ID":37996,"ELEMENT_SET_NO":999,"REV_AT_EPOCH":12209,"BSTAR":0.0037049,"MEAN_MOTION_DOT":6.154e-5,"MEAN_MOTION_DDOT":0},{"OBJECT_NAME":"COSMOS 2251 DEB","OBJECT_ID":"1993-036BQZ","EPOCH":"2023-09-14T12:34:02.522784","MEAN_MOTION":14.39922679,"ECCENTRICITY":0.0022125,"INCLINATION":74.0399,"RA_OF_ASC_NODE":317.2829,"ARG_OF_PERICENTER":239.7579,"MEAN_ANOMALY":120.1386,"EPHEMERIS_TYPE":0,"CLASSIFICATION_TYPE":"U","NORAD_CAT_ID":37998,"ELEMENT_SET_NO":999,"REV_AT_EPOCH":52458,"BSTAR":0.00069234,"MEAN_MOTION_DOT":2.157e-5,"MEAN_MOTION_DDOT":0},{"OBJECT_NAME":"COSMOS 2251 DEB","OBJECT_ID":"1993-036BRC","EPOCH":"2023-09-15T13:19:42.280608","MEAN_MOTION":14.65898006,"ECCENTRICITY":0.0082873,"INCLINATION":74.0079,"RA_OF_ASC_NODE":289.7107,"ARG_OF_PERICENTER":282.9806,"MEAN_ANOMALY":236.0125,"EPHEMERIS_TYPE":0,"CLASSIFICATION_TYPE":"U","NORAD_CAT_ID":38001,"ELEMENT_SET_NO":999,"REV_AT_EPOCH":62651,"BSTAR":0.00064087,"MEAN_MOTION_DOT":3.654e-5,"MEAN_MOTION_DDOT":0},{"OBJECT_NAME":"COSMOS 2251 DEB","OBJECT_ID":"1993-036BRF","EPOCH":"2023-09-14T04:33:43.138368","MEAN_MOTION":14.59845672,"ECCENTRICITY":0.0012484,"INCLINATION":74.0335,"RA_OF_ASC_NODE":196.7204,"ARG_OF_PERICENTER":79.9682,"MEAN_ANOMALY":280.2892,"EPHEMERIS_TYPE":0,"CLASSIFICATION_TYPE":"U","NORAD_CAT_ID":38004,"ELEMENT_SET_NO":999,"REV_AT_EPOCH":53717,"BSTAR":0.0035993,"MEAN_MOTION_DOT":0.00017249,"MEAN_MOTION_DDOT":0}]
