COSMOS 2251 DEB         
1 37966U 93036BPR 23257.73065249  .00012231  00000+0  23430-2 0  9999
2 37966  73.9952  57.1058 0022387 116.0374 244.3102 14.63690188731911
COSMOS 2251 DEB         
1 37967U 93036BPS 23256.53682528  .00003945  00000+0  13549-2 0  9994
2 37967  74.0205 202.6333 0181010 176.9971 183.2312 14.27578049529645
COSMOS 2251 DEB         
1 37968U 93036BPT 23257.29770574  .00008765  00000+0  10413-2 0  9990
2 37968  74.0067 114.9087 0116826  82.1494 279.2924 14.79719339480045
COSMOS 2251 DEB         
1 37971U 93036BPW 23255.04959056  .00004745  00000+0  16663-2 0  9996
2 37971  74.0007 127.5286 0086916  96.1424 264.9638 14.33118771488301
COSMOS 2251 DEB         
1 37973U 93036BPY 23256.01984620  .00002652  00000+0  90922-3 0  9997
2 37973  74.0376  20.0772 0041286 298.8393  60.8618 14.36184022531682
COSMOS 2251 DEB         
1 37975U 93036BQA 23256.80452130  .00008290  00000+0  22045-2 0  9996
2 37975  74.0155  86.0231 0160141 277.8006  80.4995 14.41319560742875
COSMOS 2251 DEB         
1 37977U 93036BQC 23257.28631119  .00016707  00000+0  36314-2 0  9993
2 37977  73.9769 242.3497 0029892 208.6472 151.3052 14.57746499536665
COSMOS 2251 DEB         
1 37978U 93036BQD 23252.87833521  .00013108  00000+0  18871-2 0  9995
2 37978  74.0701 326.0337 0072807 205.8372 153.9160 14.74565931544968
COSMOS 2251 DEB         
1 37985U 93036BQL 23256.88580056  .00000183  00000+0  73443-4 0  9997
2 37985  74.0273 331.8305 0022638 293.7821  66.0957 14.35006369531406
COSMOS 2251 DEB         
1 37988U 93036BQP 23257.68570842  .00006208  00000+0  13773-2 0  9993
2 37988  74.0684 151.0791 0081147  45.3815 315.3929 14.55240751114122
COSMOS 2251 DEB         
1 37993U 93036BQU 23255.75965777  .00004698  00000+0  13185-2 0  9998
2 37993  74.0276 278.4758 0030151 212.5268 147.4033 14.45989196681931
COSMOS 2251 DEB         
1 37994U 93036BQV 23258.40117394  .00001372  00000+0  47466-3 0  9994
2 37994  74.0399 344.9361 0025260 269.3142  90.5117 14.36495505652860
COSMOS 2251 DEB         
1 37996U 93036BQX 23258.77577039  .00006154  00000+0  37049-2 0  9990
2 37996  74.0724 177.8989 0284886 124.0412 238.8121 13.88654734122097
COSMOS 2251 DEB         
1 37998U 93036BQZ 23257.52364031  .00002157  00000+0  69234-3 0  9991
2 37998  74.0399 317.2829 0022125 239.7579 120.1386 14.39922679524583
COSMOS 2251 DEB         
1 38001U 93036BRC 23258.55535047  .00003654  00000+0  64087-3 0  9992
2 38001  74.0079 289.7107 0082873 282.9806 236.0125 14.65898006626514
COSMOS 2251 DEB         
1 38004U 93036BRF 23257.19008262  .00017249  00000+0  35993-2 0  9996
2 38004  74.0335 196.7204 0012484  79.9682 280.2892 14.59845672537173
